{
  "type": "FeatureCollection",
  "features": [
    {
      "type": "Feature",
      "properties": {
        "norad_id": 42989,
        "name": "SKYSAT-C9",
        "group": "resource",
        "lat": -16.64233073478926,
        "lon": -50.21362440352507,
        "alt_km": 468.06614870666,
        "timestamp": "2025-12-27T15:27:10.800900+00:00",
        "meta_object_name": "SKYSAT-C9",
        "meta_object_id": "2017-068C",
        "meta_epoch": "2025-12-27T06:47:05.235072",
        "meta_mean_motion": 15.36423263,
        "meta_eccentricity": 0.00101737,
        "meta_inclination": 97.419,
        "meta_ra_of_asc_node": 131.6545,
        "meta_arg_of_pericenter": 40.8011,
        "meta_mean_anomaly": 319.3993,
        "meta_ephemeris_type": 0,
        "meta_classification_type": "U",
        "meta_norad_cat_id": 42989,
        "meta_element_set_no": 999,
        "meta_rev_at_epoch": 45631,
        "meta_bstar": 0.00039546422,
        "meta_mean_motion_dot": 0.00014001,
        "meta_mean_motion_ddot": 0,
        "tle_line1": "1 42989U 17068C   25361.28269948  .00014001  00000+0  39546-3 0  9994",
        "tle_line2": "2 42989  97.4190 131.6545 0010173  40.8011 319.3993 15.36423263456316"
      },
      "geometry": {
        "type": "Point",
        "coordinates": [
          -50.21362440352507,
          -16.64233073478926
        ]
      }
    },
    {
      "type": "Feature",
      "properties": {
        "norad_id": 42990,
        "name": "SKYSAT-C8",
        "group": "resource",
        "lat": -1.5896818966129445,
        "lon": 131.91953283487712,
        "alt_km": 469.62052992251483,
        "timestamp": "2025-12-27T15:27:10.800910+00:00",
        "meta_object_name": "SKYSAT-C8",
        "meta_object_id": "2017-068D",
        "meta_epoch": "2025-12-27T07:37:42.314304",
        "meta_mean_motion": 15.33249067,
        "meta_eccentricity": 9.682e-05,
        "meta_inclination": 97.4286,
        "meta_ra_of_asc_node": 131.3845,
        "meta_arg_of_pericenter": 251.4246,
        "meta_mean_anomaly": 108.6891,
        "meta_ephemeris_type": 0,
        "meta_classification_type": "U",
        "meta_norad_cat_id": 42990,
        "meta_element_set_no": 999,
        "meta_rev_at_epoch": 45594,
        "meta_bstar": 0.00042375128,
        "meta_mean_motion_dot": 0.00013544,
        "meta_mean_motion_ddot": 0,
        "tle_line1": "1 42990U 17068D   25361.31785086  .00013544  00000+0  42375-3 0  9991",
        "tle_line2": "2 42990  97.4286 131.3845 0000968 251.4246 108.6891 15.33249067455944"
      },
      "geometry": {
        "type": "Point",
        "coordinates": [
          131.91953283487712,
          -1.5896818966129445
        ]
      }
    },
    {
      "type": "Feature",
      "properties": {
        "norad_id": 42991,
        "name": "SKYSAT-C7",
        "group": "resource",
        "lat": -1.8692048951205955,
        "lon": -47.502722007948556,
        "alt_km": 475.79962246428113,
        "timestamp": "2025-12-27T15:27:10.800920+00:00",
        "meta_object_name": "SKYSAT-C7",
        "meta_object_id": "2017-068E",
        "meta_epoch": "2025-12-27T06:49:40.258272",
        "meta_mean_motion": 15.32639856,
        "meta_eccentricity": 0.00066824,
        "meta_inclination": 97.4293,
        "meta_ra_of_asc_node": 132.3805,
        "meta_arg_of_pericenter": 10.4561,
        "meta_mean_anomaly": 349.6818,
        "meta_ephemeris_type": 0,
        "meta_classification_type": "U",
        "meta_norad_cat_id": 42991,
        "meta_element_set_no": 999,
        "meta_rev_at_epoch": 45600,
        "meta_bstar": 0.00037885959,
        "meta_mean_motion_dot": 0.00011876,
        "meta_mean_motion_ddot": 0,
        "tle_line1": "1 42991U 17068E   25361.28449373  .00011876  00000+0  37886-3 0  9991",
        "tle_line2": "2 42991  97.4293 132.3805 0006682  10.4561 349.6818 15.32639856456004"
      },
      "geometry": {
        "type": "Point",
        "coordinates": [
          -47.502722007948556,
          -1.8692048951205955
        ]
      }
    },
    {
      "type": "Feature",
      "properties": {
        "norad_id": 42992,
        "name": "SKYSAT-C6",
        "group": "resource",
        "lat": -72.017529144134,
        "lon": -70.54821334613872,
        "alt_km": 480.4619958513849,
        "timestamp": "2025-12-27T15:27:10.800931+00:00",
        "meta_object_name": "SKYSAT-C6",
        "meta_object_id": "2017-068F",
        "meta_epoch": "2025-12-26T21:06:12.822048",
        "meta_mean_motion": 15.31783145,
        "meta_eccentricity": 0.0004677,
        "meta_inclination": 97.4325,
        "meta_ra_of_asc_node": 132.4006,
        "meta_arg_of_pericenter": 43.8732,
        "meta_mean_anomaly": 316.288,
        "meta_ephemeris_type": 0,
        "meta_classification_type": "U",
        "meta_norad_cat_id": 42992,
        "meta_element_set_no": 999,
        "meta_rev_at_epoch": 45592,
        "meta_bstar": 0.00040064,
        "meta_mean_motion_dot": 0.00012227,
        "meta_mean_motion_ddot": 0,
        "tle_line1": "1 42992U 17068F   25360.87931507  .00012227  00000+0  40064-3 0  9994",
        "tle_line2": "2 42992  97.4325 132.4006 0004677  43.8732 316.2880 15.31783145455926"
      },
      "geometry": {
        "type": "Point",
        "coordinates": [
          -70.54821334613872,
          -72.017529144134
        ]
      }
    },
    {
      "type": "Feature",
      "properties": {
        "norad_id": 43111,
        "name": "CARTOSAT-2F",
        "group": "resource",
        "lat": 55.625285228627654,
        "lon": 48.04136721265334,
        "alt_km": 502.08873312078595,
        "timestamp": "2025-12-27T15:27:10.800941+00:00",
        "meta_object_name": "CARTOSAT-2F",
        "meta_object_id": "2018-004A",
        "meta_epoch": "2025-12-27T07:18:08.383680",
        "meta_mean_motion": 15.19269909,
        "meta_eccentricity": 0.00016301,
        "meta_inclination": 97.4297,
        "meta_ra_of_asc_node": 58.7047,
        "meta_arg_of_pericenter": 110.2469,
        "meta_mean_anomaly": 249.8941,
        "meta_ephemeris_type": 0,
        "meta_classification_type": "U",
        "meta_norad_cat_id": 43111,
        "meta_element_set_no": 999,
        "meta_rev_at_epoch": 44123,
        "meta_bstar": 0.00034673192,
        "meta_mean_motion_dot": 7.246e-05,
        "meta_mean_motion_ddot": 0,
        "tle_line1": "1 43111U 18004A   25361.30426370  .00007246  00000+0  34673-3 0  9999",
        "tle_line2": "2 43111  97.4297  58.7047 0001630 110.2469 249.8941 15.19269909441236"
      },
      "geometry": {
        "type": "Point",
        "coordinates": [
          48.04136721265334,
          55.625285228627654
        ]
      }
    },
    {
      "type": "Feature",
      "properties": {
        "norad_id": 43259,
        "name": "GAOFEN-1 02",
        "group": "resource",
        "lat": 48.58209931560605,
        "lon": 50.17189718948949,
        "alt_km": 637.0226624508578,
        "timestamp": "2025-12-27T15:27:10.800952+00:00",
        "meta_object_name": "GAOFEN-1 02",
        "meta_object_id": "2018-031A",
        "meta_epoch": "2025-12-27T07:05:53.242368",
        "meta_mean_motion": 14.76445395,
        "meta_eccentricity": 0.00027647,
        "meta_inclination": 98.0783,
        "meta_ra_of_asc_node": 59.0887,
        "meta_arg_of_pericenter": 165.3904,
        "meta_mean_anomaly": 194.7386,
        "meta_ephemeris_type": 0,
        "meta_classification_type": "U",
        "meta_norad_cat_id": 43259,
        "meta_element_set_no": 999,
        "meta_rev_at_epoch": 41733,
        "meta_bstar": 0.00015117312,
        "meta_mean_motion_dot": 1e-05,
        "meta_mean_motion_ddot": 0,
        "tle_line1": "1 43259U 18031A   25361.29575512  .00001000  00000+0  15117-3 0  9997",
        "tle_line2": "2 43259  98.0783  59.0887 0002764 165.3904 194.7386 14.76445395417338"
      },
      "geometry": {
        "type": "Point",
        "coordinates": [
          50.17189718948949,
          48.58209931560605
        ]
      }
    },
    {
      "type": "Feature",
      "properties": {
        "norad_id": 43260,
        "name": "GAOFEN-1 03",
        "group": "resource",
        "lat": 14.326783832234161,
        "lon": -118.60857755224303,
        "alt_km": 641.4038453142102,
        "timestamp": "2025-12-27T15:27:10.800962+00:00",
        "meta_object_name": "GAOFEN-1 03",
        "meta_object_id": "2018-031B",
        "meta_epoch": "2025-12-27T06:34:24.229920",
        "meta_mean_motion": 14.76428919,
        "meta_eccentricity": 0.00016688,
        "meta_inclination": 98.0778,
        "meta_ra_of_asc_node": 58.9428,
        "meta_arg_of_pericenter": 247.7257,
        "meta_mean_anomaly": 112.3776,
        "meta_ephemeris_type": 0,
        "meta_classification_type": "U",
        "meta_norad_cat_id": 43260,
        "meta_element_set_no": 999,
        "meta_rev_at_epoch": 41732,
        "meta_bstar": 0.00015866179,
        "meta_mean_motion_dot": 1.051e-05,
        "meta_mean_motion_ddot": 0,
        "tle_line1": "1 43260U 18031B   25361.27389155  .00001051  00000+0  15866-3 0  9990",
        "tle_line2": "2 43260  98.0778  58.9428 0001668 247.7257 112.3776 14.76428919417322"
      },
      "geometry": {
        "type": "Point",
        "coordinates": [
          -118.60857755224303,
          14.326783832234161
        ]
      }
    }
  ]
}